QIANFAN-33              
1 61566U 24185Q   26011.63861000  .00000270  00000+0  18508-3 0  9991
2 61566  88.9777  75.4786 0005845 216.8819 143.1957 13.96580376 73330
QIANFAN-34              
1 61567U 24185R   26011.62411349  .00000277  00000+0  17154-3 0  9991
2 61567  88.9755  75.0043 0004611 221.0298 139.0536 14.02336224 73547
QIANFAN-35              
1 61568U 24185S   26011.54855250  .00000704  00000+0  27808-3 0  9998
2 61568  88.9779  73.3841 0006933 168.8678 191.2671 14.28026234 74434
QIANFAN-36              
1 61569U 24185T   26011.63569173  .00000150  00000+0  19803-3 0  9996
2 61569  88.9764  77.9346 0004513 330.3160  29.7737 13.55599427 71975
QIANFAN-37              
1 62238U 24232B   26011.54416867  .00000031  00000+0  29614-4 0  9994
2 62238  88.9997  38.3181 0002168  76.2748 283.8645 13.50982263103197
QIANFAN-38              
1 62239U 24232C   26011.64294835  .00000029  00000+0  26059-4 0  9992
2 62239  89.0004  38.2259 0016471 107.2466 253.0490 13.50980089103267
QIANFAN-39              
1 62240U 24232D   26011.60976446  .00000125  00000+0  46786-4 0  9991
2 62240  88.9997  33.8897 0015470 349.1118  10.9738 14.25410886105641
QIANFAN-40              
1 62241U 24232E   26011.60180211  .00000037  00000+0  37711-4 0  9999
2 62241  89.0031  37.8228 0015420 114.2402 246.0363 13.50980249103621
